[{"OBJECT_NAME":"STARLINK-30132","OBJECT_ID":"2023-067R","EPOCH":"2026-03-09T22:00:01.999584","MEAN_MOTION":15.21209439,"ECCENTRICITY":0.00015319,"INCLINATION":42.9992,"RA_OF_ASC_NODE":272.3711,"ARG_OF_PERICENTER":290.3973,"MEAN_ANOMALY":90.6394,"EPHEMERIS_TYPE":0,"CLASSIFICATION_TYPE":"U","NORAD_CAT_ID":56703,"ELEMENT_SET_NO":999,"REV_AT_EPOCH":573,"BSTAR":0.072253179,"MEAN_MOTION_DOT":0.01805399,"MEAN_MOTION_DDOT":0},{"OBJECT_NAME":"OBJECT A","OBJECT_ID":"2023-189A","EPOCH":"2026-03-09T22:59:06.381600","MEAN_MOTION":15.32403275,"ECCENTRICITY":0.00094831,"INCLINATION":97.4458,"RA_OF_ASC_NODE":86.5997,"ARG_OF_PERICENTER":249.5377,"MEAN_ANOMALY":110.4847,"EPHEMERIS_TYPE":0,"CLASSIFICATION_TYPE":"U","NORAD_CAT_ID":58502,"ELEMENT_SET_NO":999,"REV_AT_EPOCH":12601,"BSTAR":0.00019874471,"MEAN_MOTION_DOT":6.146e-5,"MEAN_MOTION_DDOT":0}]
